NORAD_CAT_ID,OBJECT_NAME,OBJECT_TYPE,EPOCH,MEAN_MOTION,ECCENTRICITY,INCLINATION,RA_OF_ASC_NODE,ARG_OF_PERICENTER,MEAN_ANOMALY,BSTAR,MEAN_MOTION_DOT,MEAN_MOTION_DDOT,TLE_LINE0,TLE_LINE1,TLE_LINE2,SEMIMAJOR_AXIS,PERIOD,APOGEE,PERIGEE,DECAYED
53407.0,STARLINK-4537,PAYLOAD,2023-05-03 05:13:49,15.08839731,0.0001337,53.2166,99.7009,84.3174,275.7971,-1.4616e-05,-5.21e-06,0.0,0 STARLINK-4537,1 53407U 22097V   23123.21792974 -.00000521  00000-0 -14616-4 0  9993,2 53407  53.2166  99.7009 0001337  84.3174 275.7971 15.08839731 41074,6917.881,95.438,540.671,538.821,0.0
53407.0,STARLINK-4537,PAYLOAD,2023-05-03 08:24:35,15.08840195,0.0001339,53.2166,99.1059,84.1921,275.9224,-5.262e-06,-3.72e-06,0.0,0 STARLINK-4537,1 53407U 22097V   23123.35040903 -.00000372  00000-0 -52620-5 0  9998,2 53407  53.2166  99.1059 0001339  84.1921 275.9224 15.08840195 41588,6917.88,95.438,540.671,538.818,0.0
53407.0,STARLINK-4537,PAYLOAD,2023-05-04 08:15:21,15.08845883,0.0001282,53.2169,94.6454,93.8846,266.2293,4.9637e-05,5.02e-06,0.0,0 STARLINK-4537,1 53407U 22097V   23124.34400400  .00000502  00000-0  49637-4 0  9996,2 53407  53.2169  94.6454 0001282  93.8846 266.2293 15.08845883 41241,6917.862,95.437,540.614,538.841,0.0
53407.0,STARLINK-4537,PAYLOAD,2023-05-04 22:33:51,15.08832604,0.0001459,53.2184,91.9743,95.3536,264.7622,6.4732e-05,7.42e-06,0.0,0 STARLINK-4537,1 53407U 22097V   23124.94017378  .00000742  00000-0  64732-4 0  9999,2 53407  53.2184  91.9743 0001459  95.3536 264.7622 15.08832604 41334,6917.903,95.438,540.777,538.759,0.0
53407.0,STARLINK-4537,PAYLOAD,2023-05-05 06:30:46,15.08838869,0.0001345,53.2172,90.4832,91.9692,268.1454,9.0898e-05,1.159e-05,0.0,0 STARLINK-4537,1 53407U 22097V   23125.27137088  .00001159  00000-0  90898-4 0  9992,2 53407  53.2172  90.4832 0001345  91.9692 268.1454 15.08838869 41872,6917.884,95.438,540.679,538.818,0.0
53407.0,STARLINK-4537,PAYLOAD,2023-05-06 01:35:24,15.08837656,0.0001344,53.217,86.9148,95.299,264.8155,6.3273e-06,-1.87e-06,0.0,0 STARLINK-4537,1 53407U 22097V   23126.06625649 -.00000187  00000-0  63273-5 0  9994,2 53407  53.2170  86.9148 0001344  95.2990 264.8155 15.08837656 41501,6917.888,95.438,540.682,538.823,0.0
53407.0,STARLINK-4537,PAYLOAD,2023-05-06 06:21:33,15.08845329,0.0001361,53.2169,86.0213,92.7801,267.3347,5.8064e-05,6.36e-06,0.0,0 STARLINK-4537,1 53407U 22097V   23126.26497084  .00000636  00000-0  58064-4 0  9995,2 53407  53.2169  86.0213 0001361  92.7801 267.3347 15.08845329 42020,6917.864,95.437,540.671,538.788,0.0
53407.0,STARLINK-4537,PAYLOAD,2023-05-07 01:26:10,15.08847956,0.0001327,53.2166,82.4519,101.8378,258.2763,0.00013705,1.894e-05,0.0,0 STARLINK-4537,1 53407U 22097V   23127.05984720  .00001894  00000-0  13705-3 0  9990,2 53407  53.2166  82.4519 0001327 101.8378 258.2763 15.08847956 41656,6917.856,95.437,540.639,538.803,0.0
53407.0,STARLINK-4537,PAYLOAD,2023-05-07 04:36:56,15.08851261,0.000136,53.2167,81.8573,95.7636,264.3511,0.00016654,2.364e-05,0.0,0 STARLINK-4537,1 53407U 22097V   23127.19232533  .00002364  00000-0  16654-3 0  9992,2 53407  53.2167  81.8573 0001360  95.7636 264.3511 15.08851261 42165,6917.846,95.437,540.652,538.77,0.0
53407.0,STARLINK-4537,PAYLOAD,2023-05-08 02:52:21,15.08834411,0.0001262,53.2157,77.6926,97.59,262.5236,-6.6221e-05,-1.341e-05,0.0,0 STARLINK-4537,1 53407U 22097V   23128.11969894 -.00001341  00000-0 -66221-4 0  9994,2 53407  53.2157  77.6926 0001262  97.5900 262.5236 15.08834411 41817,6917.897,95.438,540.636,538.889,0.0
53407.0,STARLINK-4537,PAYLOAD,2023-05-08 14:00:03,15.08836695,0.0001418,53.2164,75.6102,102.9987,257.1164,5.2258e-05,5.44e-06,0.0,0 STARLINK-4537,1 53407U 22097V   23128.58337935  .00000544  00000-0  52258-4 0  9997,2 53407  53.2164  75.6102 0001418 102.9987 257.1164 15.08836695 42376,6917.89,95.438,540.736,538.775,0.0
53407.0,STARLINK-4537,PAYLOAD,2023-05-09 02:43:08,15.08852409,0.0001314,53.2166,73.232,96.7158,263.3984,0.00025179,3.723e-05,0.0,0 STARLINK-4537,1 53407U 22097V   23129.11329233  .00003723  00000-0  25179-3 0  9992,2 53407  53.2166  73.2320 0001314  96.7158 263.3984 15.08852409 41963,6917.842,95.437,540.616,538.798,0.0
53407.0,STARLINK-4537,PAYLOAD,2023-05-10 02:33:55,15.08843912,0.0001342,53.2165,68.7707,102.6853,257.4289,0.00023052,3.383e-05,0.0,0 STARLINK-4537,1 53407U 22097V   23130.10689646  .00003383  00000-0  23052-3 0  9990,2 53407  53.2165  68.7707 0001342 102.6853 257.4289 15.08843912 42603,6917.868,95.437,540.662,538.805,0.0
53407.0,STARLINK-4537,PAYLOAD,2023-05-11 02:24:42,15.08849953,0.0001192,53.2168,64.3133,92.1846,267.9283,0.00014826,2.073e-05,0.0,0 STARLINK-4537,1 53407U 22097V   23131.10049318  .00002073  00000-0  14826-3 0  9991,2 53407  53.2168  64.3133 0001192  92.1846 267.9283 15.08849953 42756,6917.85,95.437,540.54,538.89,0.0
53407.0,STARLINK-4537,PAYLOAD,2023-05-12 02:15:30,15.08832697,9.49e-05,53.2168,59.8574,97.7792,262.3308,-5.7758e-05,-1.207e-05,0.0,0 STARLINK-4537,1 53407U 22097V   23132.09410356 -.00001207  00000-0 -57758-4 0  9996,2 53407  53.2168  59.8574 0000949  97.7792 262.3308 15.08832697 42411,6917.903,95.438,540.424,539.111,0.0
53407.0,STARLINK-4537,PAYLOAD,2023-05-12 22:55:30,15.08847821,9.67e-05,53.2166,55.9873,71.3839,288.7258,0.0001393,1.93e-05,0.0,0 STARLINK-4537,1 53407U 22097V   23132.95521826  .00001930  00000-0  13930-3 0  9990,2 53407  53.2166  55.9873 0000967  71.3839 288.7258 15.08847821 42543,6917.856,95.437,540.39,539.053,0.0
53407.0,STARLINK-4537,PAYLOAD,2023-05-13 02:06:16,15.08855757,0.0001199,53.2171,55.3973,112.2772,247.8347,0.00026143,3.877e-05,0.0,0 STARLINK-4537,1 53407U 22097V   23133.08769209  .00003877  00000-0  26143-3 0  9996,2 53407  53.2171  55.3973 0001199 112.2772 247.8347 15.08855757 42567,6917.832,95.437,540.527,538.868,0.0
53407.0,STARLINK-4537,PAYLOAD,2023-05-14 01:57:04,15.08836324,0.0001262,53.2169,50.9385,120.2807,239.831,0.00011384,1.524e-05,0.0,0 STARLINK-4537,1 53407U 22097V   23134.08130567  .00001524  00000-0  11384-3 0  9994,2 53407  53.2169  50.9385 0001262 120.2807 239.8310 15.08836324 42718,6917.892,95.438,540.63,538.884,0.0
53407.0,STARLINK-4537,PAYLOAD,2023-05-15 00:12:27,15.0885208,0.000134,53.2162,46.7765,133.1856,226.9248,-1.6263e-05,-5.47e-06,0.0,0 STARLINK-4537,1 53407U 22097V   23135.00865497 -.00000547  00000-0 -16263-4 0  9992,2 53407  53.2162  46.7765 0001340 133.1856 226.9248 15.08852080 42859,6917.843,95.437,540.635,538.781,0.0
53407.0,STARLINK-4537,PAYLOAD,2023-05-15 03:23:14,15.08848438,0.0001525,53.2161,46.1809,127.2832,232.83,0.00071047,0.0001104,0.0,0 STARLINK-4537,1 53407U 22097V   23135.14113827  .00011040  00000-0  71047-3 0  9998,2 53407  53.2161  46.1809 0001525 127.2832 232.8300 15.08848438 43368,6917.855,95.437,540.775,538.665,0.0
53407.0,STARLINK-4537,PAYLOAD,2023-05-16 00:03:15,15.08841574,0.0001311,53.2167,42.3105,78.9089,281.2051,0.00014547,2.028e-05,0.0,0 STARLINK-4537,1 53407U 22097V   23136.00226358  .00002028  00000-0  14547-3 0  9996,2 53407  53.2167  42.3105 0001311  78.9089 281.2051 15.08841574 43006,6917.876,95.437,540.648,538.834,0.0
53407.0,STARLINK-4537,PAYLOAD,2023-05-16 22:18:39,15.08843225,0.0001272,53.2164,38.1481,75.1803,284.933,0.00035999,5.446e-05,0.0,0 STARLINK-4537,1 53407U 22097V   23136.92962452  .00005446  00000-0  35999-3 0  9990,2 53407  53.2164  38.1481 0001272  75.1803 284.9330 15.08843225 43636,6917.871,95.437,540.615,538.856,0.0
53407.0,STARLINK-4537,PAYLOAD,2023-05-17 20:34:03,15.0884368,0.0001159,53.2168,33.9844,83.2991,276.8133,0.00019693,2.848e-05,0.0,0 STARLINK-4537,1 53407U 22097V   23137.85698358  .00002848  00000-0  19693-3 0  9990,2 53407  53.2168  33.9844 0001159  83.2991 276.8133 15.08843680 43779,6917.869,95.437,540.536,538.932,0.0
53407.0,STARLINK-4537,PAYLOAD,2023-05-18 02:55:35,15.08845211,0.000117,53.2174,32.7935,90.3124,269.8002,0.00018164,2.605e-05,0.0,0 STARLINK-4537,1 53407U 22097V   23138.12194189  .00002605  00000-0  18164-3 0  9997,2 53407  53.2174  32.7935 0001170  90.3124 269.8002 15.08845211 43324,6917.864,95.437,540.539,538.92,0.0
53407.0,STARLINK-4537,PAYLOAD,2023-05-18 20:24:50,15.08837102,0.0001172,53.2178,29.5219,91.4294,268.6832,2.5369e-05,1.16e-06,0.0,0 STARLINK-4537,1 53407U 22097V   23138.85058594  .00000116  00000-0  25369-4 0  9997,2 53407  53.2178  29.5219 0001172  91.4294 268.6832 15.08837102 43923,6917.889,95.438,540.565,538.943,0.0
53407.0,STARLINK-4537,PAYLOAD,2023-05-18 23:35:36,15.08838651,9.71e-05,53.2175,28.9289,93.3918,266.7185,6.6504e-05,7.71e-06,0.0,0 STARLINK-4537,1 53407U 22097V   23138.98306494  .00000771  00000-0  66504-4 0  9999,2 53407  53.2175  28.9289 0000971  93.3918 266.7185 15.08838651 43458,6917.885,95.438,540.421,539.078,0.0
53407.0,STARLINK-4537,PAYLOAD,2023-05-19 21:51:00,15.08840462,0.0001022,53.2166,24.7673,98.829,261.2817,5.3064e-05,5.57e-06,0.0,0 STARLINK-4537,1 53407U 22097V   23139.91042530  .00000557  00000-0  53064-4 0  9990,2 53407  53.2166  24.7673 0001022  98.8290 261.2817 15.08840462 44085,6917.879,95.438,540.451,539.037,0.0
53407.0,STARLINK-4537,PAYLOAD,2023-05-20 01:01:46,15.08842928,0.0001076,53.2172,24.1713,94.5736,265.5379,9.1523e-05,1.169e-05,0.0,0 STARLINK-4537,1 53407U 22097V   23140.04290416  .00001169  00000-0  91523-4 0  9996,2 53407  53.2172  24.1713 0001076  94.5736 265.5379 15.08842928 43615,6917.871,95.437,540.481,538.992,0.0
53407.0,STARLINK-4537,PAYLOAD,2023-05-20 20:06:24,15.08849002,0.0001022,53.2175,20.6027,93.9727,266.1382,0.00021983,3.213e-05,0.0,0 STARLINK-4537,1 53407U 22097V   23140.83778072  .00003213  00000-0  21983-3 0  9996,2 53407  53.2175  20.6027 0001022  93.9727 266.1382 15.08849002 44220,6917.853,95.437,540.425,539.011,0.0
53407.0,STARLINK-4537,PAYLOAD,2023-05-20 23:17:10,15.0885647,0.0001046,53.2171,20.0083,94.9111,265.2,0.00036677,5.557e-05,0.0,0 STARLINK-4537,1 53407U 22097V   23140.97025774  .00005557  00000-0  36677-3 0  9994,2 53407  53.2171  20.0083 0001046  94.9111 265.2000 15.08856470 43757,6917.83,95.437,540.419,538.971,0.0
